0 FENGYUN 1C DEB
1 46443U 99025EYY 21057.97667731  .00001214  00000-0  82080-3 0  9996
2 46443  99.3003  72.3043 0117663 138.4427 252.1223 13.99012748350525
0 FENGYUN 1C DEB
1 46444U 99025EYZ 21057.85479241  .00000251  00000-0  12889-3 0  9991
2 46444  98.5985  89.8354 0090520 207.2031 327.5435 14.21558841376853
0 FENGYUN 1C DEB
1 46446U 99025EZB 21056.40361666  .00000718  00000-0  38275-3 0  9999
2 46446  98.9154 132.4725 0070517  33.9087 326.6565 14.15273296622032
0 FENGYUN 1C DEB
1 46447U 99025EZC 21057.34861079  .00000180  00000-0  79014-4 0  9997
2 46447  98.4872  85.2220 0177189 177.4325 182.7807 14.26469476542346
0 FENGYUN 1C DEB
1 46449U 99025EZE 21051.34656904  .00000126  00000-0  73242-4 0  9999
2 46449  98.8523  95.0970 0215026 255.0652 102.6625 14.14048905327836
0 FENGYUN 1C DEB
1 46450U 99025EZF 21057.57101334  .00000792  00000-0  57693-3 0  9994
2 46450  98.0864 111.2205 0219906 295.2053  62.6453 13.87776734367444
0 FENGYUN 1C DEB
1 46452U 99025EZH 21057.90841792  .00001652  00000-0  68086-3 0  9996
2 46452  98.8735 116.2787 0010444 187.0648 173.0387 14.28222246581514
0 FENGYUN 1C DEB
1 46453U 99025EZJ 21056.57390140  .00000907  00000-0  61674-3 0  9993
2 46453  98.4057 324.5439 0171375 295.6968 185.5113 13.95498918376788
0 FENGYUN 1C DEB
1 46468U 99025EZK 21057.65240729  .00000790  00000-0  46094-3 0  9995
2 46468  98.9717 123.0166 0056947 165.5967 347.2710 14.10588349490572
0 FENGYUN 1C DEB
1 46986U 99025EZL 21057.84580574  .00000294  00000-0  98867-4 0  9991
2 46986  98.4303 100.0691 0117751 102.5412 258.8977 14.40346207381689
0 FENGYUN 1C DEB
1 46987U 99025EZM 21057.17708490  .00001034  00000-0  52722-3 0  9999
2 46987  98.9096 140.2610 0047489  10.3170 349.8968 14.17382323323969
0 FENGYUN 1C DEB
1 46988U 99025EZN 21056.29059749  .00000785  00000-0  78447-3 0  9992
2 46988  98.9068  70.2102 0240187 357.7016  13.7254 13.68757774351411
0 FENGYUN 1C DEB
1 46990U 99025EZQ 21057.78171818  .00001629  00000-0  61784-3 0  9996
2 46990  98.2654  66.1817 0550089 256.4486 284.1687 13.71896109 15765
0 FENGYUN 1C DEB
1 46991U 99025EZR 21054.37471431  .00001442  00000-0  33624-3 0  9998
2 46991  98.1946 120.3641 0004258 248.0240 112.0506 14.56250655432726
0 FENGYUN 1C DEB
1 46992U 99025EZS 21057.29525571 -.00000103  00000-0 -40329-4 0  9994
2 46992  98.8675  79.3817 0067688 341.1933  18.6732 13.99151801364692
0 FENGYUN 1C DEB
1 46993U 99025EZT 21053.98187883  .00000006  00000-0  43253-4 0  9996
2 46993  98.7433 323.9292 0265831 262.5435 158.2770 13.67743845362738
0 FENGYUN 1C DEB
1 46994U 99025EZU 21058.06685391  .00001626  00000-0  24159-3 0  9990
2 46994  98.3590 150.9240 0252571 145.6179 339.3831 14.57087681404605
0 FENGYUN 1C DEB
1 46995U 99025EZV 21056.59089913  .00000669  00000-0  64468-3 0  9998
2 46995  98.5978 282.1711 0213357 161.4058 199.5042 13.73430809477577
0 FENGYUN 1C DEB
1 46998U 99025EZY 21054.08565422  .00000030  00000-0  70377-4 0  9996
2 46998  98.2417   3.4078 0270494 257.6194  99.4556 13.59335884359937
0 FENGYUN 1C DEB
1 47002U 99025FAC 21042.10576641  .00000240  00000-0  26629-3 0  9991
2 47002  99.1463 166.4193 0226986  68.3963 294.1202 13.69999842517862
0 FENGYUN 1C DEB
1 47003U 99025FAD 21057.63203088  .00000033  00000-0  87046-4 0  9999
2 47003  98.8401 185.5273 0339627 150.0433 212.0618 13.40808516418394
0 FENGYUN 1C DEB
1 47004U 99025FAE 21057.87172856  .00000695  00000-0  44299-3 0  9990
2 47004  99.1848  72.9029 0074639 301.2038  58.1828 14.05795180484953
0 FENGYUN 1C DEB
1 47005U 99025FAF 21051.68097973  .00000794  00000-0  59051-3 0  9992
2 47005  99.6266  22.8759 0077717 336.7717 198.0537 13.96888126581607
0 FENGYUN 1C DEB
1 47006U 99025FAG 21054.28426644  .00000093  00000-0  99194-4 0  9998
2 47006  99.3825  73.7153 0086030 168.7381 191.5731 13.95507895582938
