OBJECT_NAME,OBJECT_ID,EPOCH,MEAN_MOTION,ECCENTRICITY,INCLINATION,RA_OF_ASC_NODE,ARG_OF_PERICENTER,MEAN_ANOMALY,EPHEMERIS_TYPE,CLASSIFICATION_TYPE,NORAD_CAT_ID,ELEMENT_SET_NO,REV_AT_EPOCH,BSTAR,MEAN_MOTION_DOT,MEAN_MOTION_DDOT
FENGYUN 1C DEB,1999-025EYY,2021-02-26T23:26:24.919584,13.99012748,.0117663,99.3003,72.3043,138.4427,252.1223,0,U,46443,999,35053,.8208E-3,.1214E-4,0
FENGYUN 1C DEB,1999-025EYZ,2021-02-26T20:30:54.064224,14.21558841,.009052,98.5985,89.8354,207.2031,327.5435,0,U,46444,999,37685,.12889E-3,.251E-5,0
FENGYUN 1C DEB,1999-025EZB,2021-02-25T09:41:12.479424,14.15273296,.0070517,98.9154,132.4725,33.9087,326.6565,0,U,46446,999,62203,.38275E-3,.718E-5,0
FENGYUN 1C DEB,1999-025EZC,2021-02-26T08:21:59.972256,14.26469476,.0177189,98.4872,85.2220,177.4325,182.7807,0,U,46447,999,54234,.79014E-4,.18E-5,0
FENGYUN 1C DEB,1999-025EZE,2021-02-20T08:19:03.565056,14.14048905,.0215026,98.8523,95.0970,255.0652,102.6625,0,U,46449,999,32783,.73242E-4,.126E-5,0
FENGYUN 1C DEB,1999-025EZF,2021-02-26T13:42:15.552576,13.87776734,.0219906,98.0864,111.2205,295.2053,62.6453,0,U,46450,999,36744,.57693E-3,.792E-5,0
FENGYUN 1C DEB,1999-025EZH,2021-02-26T21:48:07.308288,14.28222246,.0010444,98.8735,116.2787,187.0648,173.0387,0,U,46452,999,58151,.68086E-3,.1652E-4,0
FENGYUN 1C DEB,1999-025EZJ,2021-02-25T13:46:25.080960,13.95498918,.0171375,98.4057,324.5439,295.6968,185.5113,0,U,46453,999,37678,.61674E-3,.907E-5,0
FENGYUN 1C DEB,1999-025EZK,2021-02-26T15:39:27.989856,14.10588349,.0056947,98.9717,123.0166,165.5967,347.2710,0,U,46468,999,49057,.46094E-3,.79E-5,0
FENGYUN 1C DEB,1999-025EZL,2021-02-26T20:17:57.615936,14.40346207,.0117751,98.4303,100.0691,102.5412,258.8977,0,U,46986,999,38168,.98867E-4,.294E-5,0
FENGYUN 1C DEB,1999-025EZM,2021-02-26T04:15:00.135360,14.17382323,.0047489,98.9096,140.2610,10.3170,349.8968,0,U,46987,999,32396,.52722E-3,.1034E-4,0
FENGYUN 1C DEB,1999-025EZN,2021-02-25T06:58:27.623136,13.68757774,.0240187,98.9068,70.2102,357.7016,13.7254,0,U,46988,999,35141,.78447E-3,.785E-5,0
FENGYUN 1C DEB,1999-025EZQ,2021-02-26T18:45:40.450752,13.71896109,.0550089,98.2654,66.1817,256.4486,284.1687,0,U,46990,999,1576,.61784E-3,.1629E-4,0
FENGYUN 1C DEB,1999-025EZR,2021-02-23T08:59:35.316384,14.56250655,.0004258,98.1946,120.3641,248.0240,112.0506,0,U,46991,999,43272,.33624E-3,.1442E-4,0
FENGYUN 1C DEB,1999-025EZS,2021-02-26T07:05:10.093344,13.99151801,.0067688,98.8675,79.3817,341.1933,18.6732,0,U,46992,999,36469,-.40329E-4,-.103E-5,0
FENGYUN 1C DEB,1999-025EZT,2021-02-22T23:33:54.330912,13.67743845,.0265831,98.7433,323.9292,262.5435,158.2770,0,U,46993,999,36273,.43253E-4,.6E-7,0
FENGYUN 1C DEB,1999-025EZU,2021-02-27T01:36:16.177824,14.57087681,.0252571,98.3590,150.9240,145.6179,339.3831,0,U,46994,999,40460,.24159E-3,.1626E-4,0
FENGYUN 1C DEB,1999-025EZV,2021-02-25T14:10:53.684832,13.73430809,.0213357,98.5978,282.1711,161.4058,199.5042,0,U,46995,999,47757,.64468E-3,.669E-5,0
FENGYUN 1C DEB,1999-025EZY,2021-02-23T02:03:20.524608,13.59335884,.0270494,98.2417,3.4078,257.6194,99.4556,0,U,46998,999,35993,.70377E-4,.3E-6,0
FENGYUN 1C DEB,1999-025FAC,2021-02-11T02:32:18.217824,13.69999842,.0226986,99.1463,166.4193,68.3963,294.1202,0,U,47002,999,51786,.26629E-3,.24E-5,0
FENGYUN 1C DEB,1999-025FAD,2021-02-26T15:10:07.468032,13.40808516,.0339627,98.8401,185.5273,150.0433,212.0618,0,U,47003,999,41839,.87046E-4,.33E-6,0
FENGYUN 1C DEB,1999-025FAE,2021-02-26T20:55:17.347584,14.05795180,.0074639,99.1848,72.9029,301.2038,58.1828,0,U,47004,999,48495,.44299E-3,.695E-5,0
FENGYUN 1C DEB,1999-025FAF,2021-02-20T16:20:36.648672,13.96888126,.0077717,99.6266,22.8759,336.7717,198.0537,0,U,47005,999,58160,.59051E-3,.794E-5,0
FENGYUN 1C DEB,1999-025FAG,2021-02-23T06:49:20.620416,13.95507895,.008603,99.3825,73.7153,168.7381,191.5731,0,U,47006,999,58293,.99194E-4,.93E-6,0
